STARLINK-31795          
1 59645U 24082Q   25345.04815390 -.00001399  00000+0 -41336-4 0  9998
2 59645  42.9992 221.8402 0000776 288.3129  71.7638 15.27584975 91924
STARLINK-31796          
1 59646U 24082R   25345.16403888 -.00002907  00000+0 -96073-4 0  9991
2 59646  43.0019 279.7101 0002620 248.3910 111.6662 15.27596767 91438
STARLINK-31801          
1 59647U 24082S   25345.20130337  .00001366  00000+0  59128-4 0  9999
2 59647  43.0024 279.9840 0001211 264.4188  95.6526 15.27585870 91329
STARLINK-31787          
1 59650U 24082V   25345.23329156  .00000826  00000+0  39530-4 0  9990
2 59650  43.0033 279.3688 0000809 329.8012  30.2793 15.27580172 91489
STARLINK-31277          
1 59651U 24082W   25345.24100353 -.00002689  00000+0 -88202-4 0  9999
2 59651  43.0020 279.4263 0001220   2.6597 357.4261 15.27588126 91489
STARLINK-31799          
1 59652U 24082X   25345.14750160  .00002912  00000+0  11530-3 0  9992
2 59652  42.9999 269.1727 0000547  25.8957 334.1922 15.27579832 91448
STARLINK-31764          
1 59653U 24082Y   25345.21914622  .00003592  00000+0  13995-3 0  9998
2 59653  43.0019 279.2594 0001441 277.4194  82.6494 15.27588898 91485
STARLINK-31589          
1 59654U 24084A   25345.27757403  .00002799  00000+0  11122-3 0  9997
2 59654  43.0028 180.9421 0001373 280.7019  79.3678 15.27577058 90875
STARLINK-31665          
1 59655U 24084B   25344.82805954  .00000054  00000+0  11468-4 0  9999
2 59655  42.9991 180.1204 0000649 237.0862 122.9927 15.27580572 90822
STARLINK-31912          
1 59656U 24084C   25345.24046857 -.00002840  00000+0 -93754-4 0  9991
2 59656  43.0003 181.5145 0001152 268.4680  91.6040 15.27566144 90843
STARLINK-31904          
1 59657U 24084D   25344.96862716  .00001705  00000+0  71442-4 0  9997
2 59657  43.0009 182.9121 0001231 272.0043  88.0667 15.27585738 90802
STARLINK-31858          
1 59658U 24084E   25345.26986393  .00001883  00000+0  77925-4 0  9999
2 59658  43.0014 180.8790 0001091 274.5392  85.5335 15.27583579 90856
STARLINK-31881          
1 59659U 24084F   25344.60877383  .00001725  00000+0  72180-4 0  9998
2 59659  43.0010 181.0547 0001436 262.8865  97.1824 15.27592638 90795
STARLINK-31885          
1 59660U 24084G   25345.22809151  .00002299  00000+0  93080-4 0  9996
2 59660  43.0012 177.9607 0001309 274.5773  85.4929 15.27571878 90886
STARLINK-31880          
1 59661U 24084H   25344.82164133  .00000131  00000+0  14286-4 0  9990
2 59661  43.0014 180.0710 0001101 263.8515  96.2212 15.27580816 90825
STARLINK-31886          
1 59662U 24084J   25345.23659940  .00000861  00000+0  40800-4 0  9993
2 59662  43.0009 181.4849 0001205 270.9781  89.0932 15.27583449 90843
