[{"OBJECT_NAME":"STARLINK-31795","OBJECT_ID":"2024-082Q","EPOCH":"2025-12-11T01:09:20.496960","MEAN_MOTION":15.27584975,"ECCENTRICITY":7.763e-5,"INCLINATION":42.9992,"RA_OF_ASC_NODE":221.8402,"ARG_OF_PERICENTER":288.3129,"MEAN_ANOMALY":71.7638,"EPHEMERIS_TYPE":0,"CLASSIFICATION_TYPE":"U","NORAD_CAT_ID":59645,"ELEMENT_SET_NO":999,"REV_AT_EPOCH":9192,"BSTAR":-4.1336126e-5,"MEAN_MOTION_DOT":-1.399e-5,"MEAN_MOTION_DDOT":0},{"OBJECT_NAME":"STARLINK-31796","OBJECT_ID":"2024-082R","EPOCH":"2025-12-11T03:56:12.959232","MEAN_MOTION":15.27596767,"ECCENTRICITY":0.00026207,"INCLINATION":43.0019,"RA_OF_ASC_NODE":279.7101,"ARG_OF_PERICENTER":248.391,"MEAN_ANOMALY":111.6662,"EPHEMERIS_TYPE":0,"CLASSIFICATION_TYPE":"U","NORAD_CAT_ID":59646,"ELEMENT_SET_NO":999,"REV_AT_EPOCH":9143,"BSTAR":-9.6072746e-5,"MEAN_MOTION_DOT":-2.907e-5,"MEAN_MOTION_DDOT":0},{"OBJECT_NAME":"STARLINK-31801","OBJECT_ID":"2024-082S","EPOCH":"2025-12-11T04:49:52.611168","MEAN_MOTION":15.2758587,"ECCENTRICITY":0.0001211,"INCLINATION":43.0024,"RA_OF_ASC_NODE":279.984,"ARG_OF_PERICENTER":264.4188,"MEAN_ANOMALY":95.6526,"EPHEMERIS_TYPE":0,"CLASSIFICATION_TYPE":"U","NORAD_CAT_ID":59647,"ELEMENT_SET_NO":999,"REV_AT_EPOCH":9132,"BSTAR":5.9127598e-5,"MEAN_MOTION_DOT":1.366e-5,"MEAN_MOTION_DDOT":0},{"OBJECT_NAME":"STARLINK-31787","OBJECT_ID":"2024-082V","EPOCH":"2025-12-11T05:35:56.390784","MEAN_MOTION":15.27580172,"ECCENTRICITY":8.096e-5,"INCLINATION":43.0033,"RA_OF_ASC_NODE":279.3688,"ARG_OF_PERICENTER":329.8012,"MEAN_ANOMALY":30.2793,"EPHEMERIS_TYPE":0,"CLASSIFICATION_TYPE":"U","NORAD_CAT_ID":59650,"ELEMENT_SET_NO":999,"REV_AT_EPOCH":9148,"BSTAR":3.9529763e-5,"MEAN_MOTION_DOT":8.26e-6,"MEAN_MOTION_DDOT":0},{"OBJECT_NAME":"STARLINK-31277","OBJECT_ID":"2024-082W","EPOCH":"2025-12-11T05:47:02.704992","MEAN_MOTION":15.27588126,"ECCENTRICITY":0.00012205,"INCLINATION":43.002,"RA_OF_ASC_NODE":279.4263,"ARG_OF_PERICENTER":2.6597,"MEAN_ANOMALY":357.4261,"EPHEMERIS_TYPE":0,"CLASSIFICATION_TYPE":"U","NORAD_CAT_ID":59651,"ELEMENT_SET_NO":999,"REV_AT_EPOCH":9148,"BSTAR":-8.8202428e-5,"MEAN_MOTION_DOT":-2.689e-5,"MEAN_MOTION_DDOT":0},{"OBJECT_NAME":"STARLINK-31799","OBJECT_ID":"2024-082X","EPOCH":"2025-12-11T03:32:24.138240","MEAN_MOTION":15.27579832,"ECCENTRICITY":5.47e-5,"INCLINATION":42.9999,"RA_OF_ASC_NODE":269.1727,"ARG_OF_PERICENTER":25.8957,"MEAN_ANOMALY":334.1922,"EPHEMERIS_TYPE":0,"CLASSIFICATION_TYPE":"U","NORAD_CAT_ID":59652,"ELEMENT_SET_NO":999,"REV_AT_EPOCH":9144,"BSTAR":0.00011530295,"MEAN_MOTION_DOT":2.912e-5,"MEAN_MOTION_DDOT":0},{"OBJECT_NAME":"STARLINK-31764","OBJECT_ID":"2024-082Y","EPOCH":"2025-12-11T05:15:34.233408","MEAN_MOTION":15.27588898,"ECCENTRICITY":0.00014412,"INCLINATION":43.0019,"RA_OF_ASC_NODE":279.2594,"ARG_OF_PERICENTER":277.4194,"MEAN_ANOMALY":82.6494,"EPHEMERIS_TYPE":0,"CLASSIFICATION_TYPE":"U","NORAD_CAT_ID":59653,"ELEMENT_SET_NO":999,"REV_AT_EPOCH":9148,"BSTAR":0.00013994805,"MEAN_MOTION_DOT":3.592e-5,"MEAN_MOTION_DDOT":0},{"OBJECT_NAME":"STARLINK-31589","OBJECT_ID":"2024-084A","EPOCH":"2025-12-11T06:39:42.396192","MEAN_MOTION":15.27577058,"ECCENTRICITY":0.00013735,"INCLINATION":43.0028,"RA_OF_ASC_NODE":180.9421,"ARG_OF_PERICENTER":280.7019,"MEAN_ANOMALY":79.3678,"EPHEMERIS_TYPE":0,"CLASSIFICATION_TYPE":"U","NORAD_CAT_ID":59654,"ELEMENT_SET_NO":999,"REV_AT_EPOCH":9087,"BSTAR":0.00011121915,"MEAN_MOTION_DOT":2.799e-5,"MEAN_MOTION_DDOT":0},{"OBJECT_NAME":"STARLINK-31665","OBJECT_ID":"2024-084B","EPOCH":"2025-12-10T19:52:24.344256","MEAN_MOTION":15.27580572,"ECCENTRICITY":6.498e-5,"INCLINATION":42.9991,"RA_OF_ASC_NODE":180.1204,"ARG_OF_PERICENTER":237.0862,"MEAN_ANOMALY":122.9927,"EPHEMERIS_TYPE":0,"CLASSIFICATION_TYPE":"U","NORAD_CAT_ID":59655,"ELEMENT_SET_NO":999,"REV_AT_EPOCH":9082,"BSTAR":1.1467735e-5,"MEAN_MOTION_DOT":5.4e-7,"MEAN_MOTION_DDOT":0},{"OBJECT_NAME":"STARLINK-31912","OBJECT_ID":"2024-084C","EPOCH":"2025-12-11T05:46:16.484448","MEAN_MOTION":15.27566144,"ECCENTRICITY":0.00011525,"INCLINATION":43.0003,"RA_OF_ASC_NODE":181.5145,"ARG_OF_PERICENTER":268.468,"MEAN_ANOMALY":91.604,"EPHEMERIS_TYPE":0,"CLASSIFICATION_TYPE":"U","NORAD_CAT_ID":59656,"ELEMENT_SET_NO":999,"REV_AT_EPOCH":9084,"BSTAR":-9.3753544e-5,"MEAN_MOTION_DOT":-2.84e-5,"MEAN_MOTION_DDOT":0},{"OBJECT_NAME":"STARLINK-31904","OBJECT_ID":"2024-084D","EPOCH":"2025-12-10T23:14:49.386624","MEAN_MOTION":15.27585738,"ECCENTRICITY":0.00012319,"INCLINATION":43.0009,"RA_OF_ASC_NODE":182.9121,"ARG_OF_PERICENTER":272.0043,"MEAN_ANOMALY":88.0667,"EPHEMERIS_TYPE":0,"CLASSIFICATION_TYPE":"U","NORAD_CAT_ID":59657,"ELEMENT_SET_NO":999,"REV_AT_EPOCH":9080,"BSTAR":7.1442147e-5,"MEAN_MOTION_DOT":1.705e-5,"MEAN_MOTION_DDOT":0},{"OBJECT_NAME":"STARLINK-31858","OBJECT_ID":"2024-084E","EPOCH":"2025-12-11T06:28:36.243552","MEAN_MOTION":15.27583579,"ECCENTRICITY":0.00010913,"INCLINATION":43.0014,"RA_OF_ASC_NODE":180.879,"ARG_OF_PERICENTER":274.5392,"MEAN_ANOMALY":85.5335,"EPHEMERIS_TYPE":0,"CLASSIFICATION_TYPE":"U","NORAD_CAT_ID":59658,"ELEMENT_SET_NO":999,"REV_AT_EPOCH":9085,"BSTAR":7.7924962e-5,"MEAN_MOTION_DOT":1.883e-5,"MEAN_MOTION_DDOT":0},{"OBJECT_NAME":"STARLINK-31881","OBJECT_ID":"2024-084F","EPOCH":"2025-12-10T14:36:38.058912","MEAN_MOTION":15.27592638,"ECCENTRICITY":0.0001436,"INCLINATION":43.001,"RA_OF_ASC_NODE":181.0547,"ARG_OF_PERICENTER":262.8865,"MEAN_ANOMALY":97.1824,"EPHEMERIS_TYPE":0,"CLASSIFICATION_TYPE":"U","NORAD_CAT_ID":59659,"ELEMENT_SET_NO":999,"REV_AT_EPOCH":9079,"BSTAR":7.218e-5,"MEAN_MOTION_DOT":1.725e-5,"MEAN_MOTION_DDOT":0},{"OBJECT_NAME":"STARLINK-31885","OBJECT_ID":"2024-084G","EPOCH":"2025-12-11T05:28:27.106464","MEAN_MOTION":15.27571878,"ECCENTRICITY":0.00013094,"INCLINATION":43.0012,"RA_OF_ASC_NODE":177.9607,"ARG_OF_PERICENTER":274.5773,"MEAN_ANOMALY":85.4929,"EPHEMERIS_TYPE":0,"CLASSIFICATION_TYPE":"U","NORAD_CAT_ID":59660,"ELEMENT_SET_NO":999,"REV_AT_EPOCH":9088,"BSTAR":9.3080474e-5,"MEAN_MOTION_DOT":2.299e-5,"MEAN_MOTION_DDOT":0},{"OBJECT_NAME":"STARLINK-31880","OBJECT_ID":"2024-084H","EPOCH":"2025-12-10T19:43:09.810912","MEAN_MOTION":15.27580816,"ECCENTRICITY":0.00011014,"INCLINATION":43.0014,"RA_OF_ASC_NODE":180.071,"ARG_OF_PERICENTER":263.8515,"MEAN_ANOMALY":96.2212,"EPHEMERIS_TYPE":0,"CLASSIFICATION_TYPE":"U","NORAD_CAT_ID":59661,"ELEMENT_SET_NO":999,"REV_AT_EPOCH":9082,"BSTAR":1.428638e-5,"MEAN_MOTION_DOT":1.31e-6,"MEAN_MOTION_DDOT":0},{"OBJECT_NAME":"STARLINK-31886","OBJECT_ID":"2024-084J","EPOCH":"2025-12-11T05:40:42.188160","MEAN_MOTION":15.27583449,"ECCENTRICITY":0.0001205,"INCLINATION":43.0009,"RA_OF_ASC_NODE":181.4849,"ARG_OF_PERICENTER":270.9781,"MEAN_ANOMALY":89.0932,"EPHEMERIS_TYPE":0,"CLASSIFICATION_TYPE":"U","NORAD_CAT_ID":59662,"ELEMENT_SET_NO":999,"REV_AT_EPOCH":9084,"BSTAR":4.0800473e-5,"MEAN_MOTION_DOT":8.61e-6,"MEAN_MOTION_DDOT":0}]
